{
  "type": "FeatureCollection",
  "features": [
    {
      "type": "Feature",
      "properties": {
        "norad_id": 40128,
        "name": "GSAT0201 (GALILEO 5)",
        "group": "gnss",
        "lat": -23.005150655446528,
        "lon": 123.01053071408403,
        "alt_km": 17765.019289247248,
        "timestamp": "2025-12-02T23:34:15.758363+00:00",
        "meta_object_name": "GSAT0201 (GALILEO 5)",
        "meta_object_id": "2014-050A",
        "meta_epoch": "2025-11-28T09:00:06.762528",
        "meta_mean_motion": 1.85519533,
        "meta_eccentricity": 0.16464881,
        "meta_inclination": 49.0938,
        "meta_ra_of_asc_node": 281.6492,
        "meta_arg_of_pericenter": 171.7362,
        "meta_mean_anomaly": 191.3851,
        "meta_ephemeris_type": 0,
        "meta_classification_type": "U",
        "meta_norad_cat_id": 40128,
        "meta_element_set_no": 999,
        "meta_rev_at_epoch": 7459,
        "meta_bstar": 0,
        "meta_mean_motion_dot": -4.8e-07,
        "meta_mean_motion_ddot": 0,
        "tle_line1": "1 40128U 14050A   25332.37507827 -.00000048  00000+0  00000+0 0  9990",
        "tle_line2": "2 40128  49.0938 281.6492 1646488 171.7362 191.3851  1.85519533 74599"
      },
      "geometry": {
        "type": "Point",
        "coordinates": [
          123.01053071408403,
          -23.005150655446528
        ]
      }
    },
    {
      "type": "Feature",
      "properties": {
        "norad_id": 40129,
        "name": "GSAT0202 (GALILEO 6)",
        "group": "gnss",
        "lat": 14.419197182009986,
        "lon": -66.62172124753343,
        "alt_km": 25537.87001862409,
        "timestamp": "2025-12-02T23:34:15.758376+00:00",
        "meta_object_name": "GSAT0202 (GALILEO 6)",
        "meta_object_id": "2014-050B",
        "meta_epoch": "2025-11-29T17:01:27.924672",
        "meta_mean_motion": 1.85520097,
        "meta_eccentricity": 0.1647266,
        "meta_inclination": 49.1079,
        "meta_ra_of_asc_node": 280.6784,
        "meta_arg_of_pericenter": 172.5408,
        "meta_mean_anomaly": 190.2825,
        "meta_ephemeris_type": 0,
        "meta_classification_type": "U",
        "meta_norad_cat_id": 40129,
        "meta_element_set_no": 999,
        "meta_rev_at_epoch": 7678,
        "meta_bstar": 0,
        "meta_mean_motion_dot": -5.4e-07,
        "meta_mean_motion_ddot": 0,
        "tle_line1": "1 40129U 14050B   25333.70935098 -.00000054  00000+0  00000+0 0  9991",
        "tle_line2": "2 40129  49.1079 280.6784 1647266 172.5408 190.2825  1.85520097 76784"
      },
      "geometry": {
        "type": "Point",
        "coordinates": [
          -66.62172124753343,
          14.419197182009986
        ]
      }
    },
    {
      "type": "Feature",
      "properties": {
        "norad_id": 40269,
        "name": "IRNSS-1C",
        "group": "gnss",
        "lat": 4.981029455890433,
        "lon": 148.611365356496,
        "alt_km": 35740.91739473918,
        "timestamp": "2025-12-02T23:34:15.758388+00:00",
        "meta_object_name": "IRNSS-1C",
        "meta_object_id": "2014-061A",
        "meta_epoch": "2025-12-02T07:19:54.613344",
        "meta_mean_motion": 1.00269394,
        "meta_eccentricity": 0.0017878,
        "meta_inclination": 6.0144,
        "meta_ra_of_asc_node": 92.8297,
        "meta_arg_of_pericenter": 2.8154,
        "meta_mean_anomaly": 168.7168,
        "meta_ephemeris_type": 0,
        "meta_classification_type": "U",
        "meta_norad_cat_id": 40269,
        "meta_element_set_no": 999,
        "meta_rev_at_epoch": 4071,
        "meta_bstar": 0,
        "meta_mean_motion_dot": -1.41e-06,
        "meta_mean_motion_ddot": 0,
        "tle_line1": "1 40269U 14061A   25336.30549321 -.00000141  00000+0  00000+0 0  9994",
        "tle_line2": "2 40269   6.0144  92.8297 0017878   2.8154 168.7168  1.00269394 40719"
      },
      "geometry": {
        "type": "Point",
        "coordinates": [
          148.611365356496,
          4.981029455890433
        ]
      }
    },
    {
      "type": "Feature",
      "properties": {
        "norad_id": 40294,
        "name": "GPS BIIF-8  (PRN 03)",
        "group": "gnss",
        "lat": -2.47510514311044,
        "lon": 36.92262422453896,
        "alt_km": 20132.73425666243,
        "timestamp": "2025-12-02T23:34:15.758399+00:00",
        "meta_object_name": "GPS BIIF-8  (PRN 03)",
        "meta_object_id": "2014-068A",
        "meta_epoch": "2025-12-01T11:46:15.010464",
        "meta_mean_motion": 2.00563998,
        "meta_eccentricity": 0.00608279,
        "meta_inclination": 56.849,
        "meta_ra_of_asc_node": 38.5813,
        "meta_arg_of_pericenter": 69.4379,
        "meta_mean_anomaly": 291.2622,
        "meta_ephemeris_type": 0,
        "meta_classification_type": "U",
        "meta_norad_cat_id": 40294,
        "meta_element_set_no": 999,
        "meta_rev_at_epoch": 8124,
        "meta_bstar": 0,
        "meta_mean_motion_dot": -6.4e-07,
        "meta_mean_motion_ddot": 0,
        "tle_line1": "1 40294U 14068A   25335.49045151 -.00000064  00000+0  00000+0 0  9994",
        "tle_line2": "2 40294  56.8490  38.5813 0060827  69.4379 291.2622  2.00563998 81243"
      },
      "geometry": {
        "type": "Point",
        "coordinates": [
          36.92262422453896,
          -2.47510514311044
        ]
      }
    },
    {
      "type": "Feature",
      "properties": {
        "norad_id": 40315,
        "name": "COSMOS 2501 (702K)",
        "group": "gnss",
        "lat": -44.09652146097276,
        "lon": 45.905985325978534,
        "alt_km": 19088.963469581522,
        "timestamp": "2025-12-02T23:34:15.758410+00:00",
        "meta_object_name": "COSMOS 2501 (702K)",
        "meta_object_id": "2014-075A",
        "meta_epoch": "2025-11-30T19:17:52.497312",
        "meta_mean_motion": 2.13101305,
        "meta_eccentricity": 0.00201676,
        "meta_inclination": 63.6137,
        "meta_ra_of_asc_node": 197.2386,
        "meta_arg_of_pericenter": 204.7979,
        "meta_mean_anomaly": 155.1955,
        "meta_ephemeris_type": 0,
        "meta_classification_type": "U",
        "meta_norad_cat_id": 40315,
        "meta_element_set_no": 999,
        "meta_rev_at_epoch": 8562,
        "meta_bstar": 0,
        "meta_mean_motion_dot": 1e-06,
        "meta_mean_motion_ddot": 0,
        "tle_line1": "1 40315U 14075A   25334.80407983  .00000100  00000+0  00000+0 0  9995",
        "tle_line2": "2 40315  63.6137 197.2386 0020167 204.7979 155.1955  2.13101305 85629"
      },
      "geometry": {
        "type": "Point",
        "coordinates": [
          45.905985325978534,
          -44.09652146097276
        ]
      }
    },
    {
      "type": "Feature",
      "properties": {
        "norad_id": 40534,
        "name": "GPS BIIF-9  (PRN 26)",
        "group": "gnss",
        "lat": -52.6459316928961,
        "lon": 110.78937422430398,
        "alt_km": 20387.56386031055,
        "timestamp": "2025-12-02T23:34:15.758421+00:00",
        "meta_object_name": "GPS BIIF-9  (PRN 26)",
        "meta_object_id": "2015-013A",
        "meta_epoch": "2025-12-01T02:55:38.238240",
        "meta_mean_motion": 2.00563184,
        "meta_eccentricity": 0.01065399,
        "meta_inclination": 53.1998,
        "meta_ra_of_asc_node": 212.3715,
        "meta_arg_of_pericenter": 38.192,
        "meta_mean_anomaly": 322.6465,
        "meta_ephemeris_type": 0,
        "meta_classification_type": "U",
        "meta_norad_cat_id": 40534,
        "meta_element_set_no": 999,
        "meta_rev_at_epoch": 7785,
        "meta_bstar": 0,
        "meta_mean_motion_dot": 6.6e-07,
        "meta_mean_motion_ddot": 0,
        "tle_line1": "1 40534U 15013A   25335.12197035  .00000066  00000+0  00000+0 0  9992",
        "tle_line2": "2 40534  53.1998 212.3715 0106539  38.1920 322.6465  2.00563184 77855"
      },
      "geometry": {
        "type": "Point",
        "coordinates": [
          110.78937422430398,
          -52.6459316928961
        ]
      }
    },
    {
      "type": "Feature",
      "properties": {
        "norad_id": 40544,
        "name": "GSAT0203 (GALILEO 7)",
        "group": "gnss",
        "lat": 9.444490844589847,
        "lon": 160.7111396972216,
        "alt_km": 23223.967923135388,
        "timestamp": "2025-12-02T23:34:15.758432+00:00",
        "meta_object_name": "GSAT0203 (GALILEO 7)",
        "meta_object_id": "2015-017A",
        "meta_epoch": "2025-12-02T02:53:32.217792",
        "meta_mean_motion": 1.70475823,
        "meta_eccentricity": 0.00065177,
        "meta_inclination": 56.8491,
        "meta_ra_of_asc_node": 346.9701,
        "meta_arg_of_pericenter": 267.4937,
        "meta_mean_anomaly": 92.4718,
        "meta_ephemeris_type": 0,
        "meta_classification_type": "U",
        "meta_norad_cat_id": 40544,
        "meta_element_set_no": 999,
        "meta_rev_at_epoch": 6584,
        "meta_bstar": 0,
        "meta_mean_motion_dot": -6.2e-07,
        "meta_mean_motion_ddot": 0,
        "tle_line1": "1 40544U 15017A   25336.12051178 -.00000062  00000+0  00000+0 0  9992",
        "tle_line2": "2 40544  56.8491 346.9701 0006517 267.4937  92.4718  1.70475823 65840"
      },
      "geometry": {
        "type": "Point",
        "coordinates": [
          160.7111396972216,
          9.444490844589847
        ]
      }
    }
  ]
}